CCSDS_OMM_VERS = 2.0
CREATION_DATE  = 
ORIGINATOR     = 

OBJECT_NAME    = UNKNOWN
OBJECT_ID      = 
CENTER_NAME    = EARTH
REF_FRAME      = TEME
TIME_SYSTEM    = UTC
MEAN_ELEMENT_THEORY = SGP/SGP4

EPOCH          = 2025-10-25T07:44:22.054272
MEAN_MOTION    = 14.63836513
ECCENTRICITY   = .0106916
INCLINATION    = 98.6753
RA_OF_ASC_NODE = 119.3350
ARG_OF_PERICENTER = 57.9698
MEAN_ANOMALY   = 63.6030

EPHEMERIS_TYPE = 0
CLASSIFICATION_TYPE = U
NORAD_CAT_ID   = 87706
ELEMENT_SET_NO = 999
REV_AT_EPOCH   = 57143
BSTAR          = .84775E-3
MEAN_MOTION_DOT = .4755E-4
MEAN_MOTION_DDOT = 0

CCSDS_OMM_VERS = 2.0
CREATION_DATE  = 
ORIGINATOR     = 

OBJECT_NAME    = UNKNOWN
OBJECT_ID      = 
CENTER_NAME    = EARTH
REF_FRAME      = TEME
TIME_SYSTEM    = UTC
MEAN_ELEMENT_THEORY = SGP/SGP4

EPOCH          = 2025-10-25T10:15:46.752480
MEAN_MOTION    = 14.90258185
ECCENTRICITY   = .0012017
INCLINATION    = 82.8694
RA_OF_ASC_NODE = 299.7086
ARG_OF_PERICENTER = 190.9372
MEAN_ANOMALY   = 169.1589

EPHEMERIS_TYPE = 0
CLASSIFICATION_TYPE = U
NORAD_CAT_ID   = 87725
ELEMENT_SET_NO = 999
REV_AT_EPOCH   = 62671
BSTAR          = .4263E-2
MEAN_MOTION_DOT = .41643E-3
MEAN_MOTION_DDOT = 0

CCSDS_OMM_VERS = 2.0
CREATION_DATE  = 
ORIGINATOR     = 

OBJECT_NAME    = UNKNOWN
OBJECT_ID      = 
CENTER_NAME    = EARTH
REF_FRAME      = TEME
TIME_SYSTEM    = UTC
MEAN_ELEMENT_THEORY = SGP/SGP4

EPOCH          = 2025-10-22T04:43:09.887808
MEAN_MOTION    = 13.74493218
ECCENTRICITY   = .0030743
INCLINATION    = 82.9413
RA_OF_ASC_NODE = 272.2399
ARG_OF_PERICENTER = 145.2410
MEAN_ANOMALY   = 215.0763

EPHEMERIS_TYPE = 0
CLASSIFICATION_TYPE = U
NORAD_CAT_ID   = 87730
ELEMENT_SET_NO = 999
REV_AT_EPOCH   = 57825
BSTAR          = .10736E-3
MEAN_MOTION_DOT = .117E-5
MEAN_MOTION_DDOT = 0

CCSDS_OMM_VERS = 2.0
CREATION_DATE  = 
ORIGINATOR     = 

OBJECT_NAME    = UNKNOWN
OBJECT_ID      = 
CENTER_NAME    = EARTH
REF_FRAME      = TEME
TIME_SYSTEM    = UTC
MEAN_ELEMENT_THEORY = SGP/SGP4

EPOCH          = 2025-10-20T22:01:32.098368
MEAN_MOTION    = 13.72328491
ECCENTRICITY   = .0132912
INCLINATION    = 99.3796
RA_OF_ASC_NODE = 166.8490
ARG_OF_PERICENTER = 327.7883
MEAN_ANOMALY   = 31.5196

EPHEMERIS_TYPE = 0
CLASSIFICATION_TYPE = U
NORAD_CAT_ID   = 87737
ELEMENT_SET_NO = 999
REV_AT_EPOCH   = 59661
BSTAR          = .13518E-3
MEAN_MOTION_DOT = .87E-6
MEAN_MOTION_DDOT = 0

CCSDS_OMM_VERS = 2.0
CREATION_DATE  = 
ORIGINATOR     = 

OBJECT_NAME    = UNKNOWN
OBJECT_ID      = 
CENTER_NAME    = EARTH
REF_FRAME      = TEME
TIME_SYSTEM    = UTC
MEAN_ELEMENT_THEORY = SGP/SGP4

EPOCH          = 2025-10-25T10:36:05.289696
MEAN_MOTION    = 14.33721400
ECCENTRICITY   = .0363315
INCLINATION    = 65.6730
RA_OF_ASC_NODE = 295.2915
ARG_OF_PERICENTER = 102.2419
MEAN_ANOMALY   = 50.4487

EPHEMERIS_TYPE = 0
CLASSIFICATION_TYPE = U
NORAD_CAT_ID   = 87764
ELEMENT_SET_NO = 999
REV_AT_EPOCH   = 61219
BSTAR          = .10209E-2
MEAN_MOTION_DOT = .5871E-4
MEAN_MOTION_DDOT = 0

CCSDS_OMM_VERS = 2.0
CREATION_DATE  = 
ORIGINATOR     = 

OBJECT_NAME    = UNKNOWN
OBJECT_ID      = 
CENTER_NAME    = EARTH
REF_FRAME      = TEME
TIME_SYSTEM    = UTC
MEAN_ELEMENT_THEORY = SGP/SGP4

EPOCH          = 2025-10-21T07:07:16.140576
MEAN_MOTION    = 13.19497517
ECCENTRICITY   = .011962
INCLINATION    = 100.7477
RA_OF_ASC_NODE = 129.3158
ARG_OF_PERICENTER = 121.0498
MEAN_ANOMALY   = 240.2423

EPHEMERIS_TYPE = 0
CLASSIFICATION_TYPE = U
NORAD_CAT_ID   = 87771
ELEMENT_SET_NO = 999
REV_AT_EPOCH   = 52817
BSTAR          = .4211E-3
MEAN_MOTION_DOT = .128E-5
MEAN_MOTION_DDOT = 0

CCSDS_OMM_VERS = 2.0
CREATION_DATE  = 
ORIGINATOR     = 

OBJECT_NAME    = UNKNOWN
OBJECT_ID      = 
CENTER_NAME    = EARTH
REF_FRAME      = TEME
TIME_SYSTEM    = UTC
MEAN_ELEMENT_THEORY = SGP/SGP4

EPOCH          = 2025-10-25T10:43:04.297728
MEAN_MOTION    = 13.00073387
ECCENTRICITY   = .0071125
INCLINATION    = 102.3230
RA_OF_ASC_NODE = 163.7285
ARG_OF_PERICENTER = 324.8559
MEAN_ANOMALY   = 34.7858

EPHEMERIS_TYPE = 0
CLASSIFICATION_TYPE = U
NORAD_CAT_ID   = 87782
ELEMENT_SET_NO = 999
REV_AT_EPOCH   = 56171
BSTAR          = .11514E-1
MEAN_MOTION_DOT = .3457E-4
MEAN_MOTION_DDOT = 0

CCSDS_OMM_VERS = 2.0
CREATION_DATE  = 
ORIGINATOR     = 

OBJECT_NAME    = UNKNOWN
OBJECT_ID      = 
CENTER_NAME    = EARTH
REF_FRAME      = TEME
TIME_SYSTEM    = UTC
MEAN_ELEMENT_THEORY = SGP/SGP4

EPOCH          = 2025-10-03T14:42:32.903712
MEAN_MOTION    = 13.16213341
ECCENTRICITY   = .0244531
INCLINATION    = 99.6678
RA_OF_ASC_NODE = 36.6805
ARG_OF_PERICENTER = 170.0275
MEAN_ANOMALY   = 190.5821

EPHEMERIS_TYPE = 0
CLASSIFICATION_TYPE = U
NORAD_CAT_ID   = 87843
ELEMENT_SET_NO = 999
REV_AT_EPOCH   = 55493
BSTAR          = .94101E-2
MEAN_MOTION_DOT = .4133E-4
MEAN_MOTION_DDOT = 0

CCSDS_OMM_VERS = 2.0
CREATION_DATE  = 
ORIGINATOR     = 

OBJECT_NAME    = UNKNOWN
OBJECT_ID      = 
CENTER_NAME    = EARTH
REF_FRAME      = TEME
TIME_SYSTEM    = UTC
MEAN_ELEMENT_THEORY = SGP/SGP4

EPOCH          = 2025-10-25T04:05:17.869344
MEAN_MOTION    = 12.88683517
ECCENTRICITY   = .0577939
INCLINATION    = 98.8487
RA_OF_ASC_NODE = 265.2103
ARG_OF_PERICENTER = 5.6006
MEAN_ANOMALY   = 355.1206

EPHEMERIS_TYPE = 0
CLASSIFICATION_TYPE = U
NORAD_CAT_ID   = 87845
ELEMENT_SET_NO = 999
REV_AT_EPOCH   = 55895
BSTAR          = .46328E-2
MEAN_MOTION_DOT = .2455E-4
MEAN_MOTION_DDOT = 0

CCSDS_OMM_VERS = 2.0
CREATION_DATE  = 
ORIGINATOR     = 

OBJECT_NAME    = UNKNOWN
OBJECT_ID      = 
CENTER_NAME    = EARTH
REF_FRAME      = TEME
TIME_SYSTEM    = UTC
MEAN_ELEMENT_THEORY = SGP/SGP4

EPOCH          = 2025-10-21T01:17:09.687840
MEAN_MOTION    = 14.40156437
ECCENTRICITY   = .0035787
INCLINATION    = 99.1563
RA_OF_ASC_NODE = 49.8845
ARG_OF_PERICENTER = 62.8154
MEAN_ANOMALY   = 297.6673

EPHEMERIS_TYPE = 0
CLASSIFICATION_TYPE = U
NORAD_CAT_ID   = 87878
ELEMENT_SET_NO = 999
REV_AT_EPOCH   = 60371
BSTAR          = .1912E-2
MEAN_MOTION_DOT = .6042E-4
MEAN_MOTION_DDOT = 0

CCSDS_OMM_VERS = 2.0
CREATION_DATE  = 
ORIGINATOR     = 

OBJECT_NAME    = UNKNOWN
OBJECT_ID      = 
CENTER_NAME    = EARTH
REF_FRAME      = TEME
TIME_SYSTEM    = UTC
MEAN_ELEMENT_THEORY = SGP/SGP4

EPOCH          = 2025-10-23T13:06:08.396928
MEAN_MOTION    = 14.05927936
ECCENTRICITY   = .0153769
INCLINATION    = 98.7332
RA_OF_ASC_NODE = 42.1558
ARG_OF_PERICENTER = 209.1804
MEAN_ANOMALY   = 150.0709

EPHEMERIS_TYPE = 0
CLASSIFICATION_TYPE = U
NORAD_CAT_ID   = 87884
ELEMENT_SET_NO = 999
REV_AT_EPOCH   = 61131
BSTAR          = .21693E-3
MEAN_MOTION_DOT = .352E-5
MEAN_MOTION_DDOT = 0

CCSDS_OMM_VERS = 2.0
CREATION_DATE  = 
ORIGINATOR     = 

OBJECT_NAME    = UNKNOWN
OBJECT_ID      = 
CENTER_NAME    = EARTH
REF_FRAME      = TEME
TIME_SYSTEM    = UTC
MEAN_ELEMENT_THEORY = SGP/SGP4

EPOCH          = 2025-10-24T09:34:04.324224
MEAN_MOTION    = 13.73098446
ECCENTRICITY   = .0031334
INCLINATION    = 82.9377
RA_OF_ASC_NODE = 336.1830
ARG_OF_PERICENTER = 170.6674
MEAN_ANOMALY   = 206.2457

EPHEMERIS_TYPE = 0
CLASSIFICATION_TYPE = U
NORAD_CAT_ID   = 87934
ELEMENT_SET_NO = 999
REV_AT_EPOCH   = 59754
BSTAR          = .11385E-3
MEAN_MOTION_DOT = .121E-5
MEAN_MOTION_DDOT = 0

