UNKNOWN                 
1 87706U          25298.32247748  .00004755  00000+0  84775-3 0  9995
2 87706  98.6753 119.3350 0106916  57.9698  63.6030 14.63836513571435
UNKNOWN                 
1 87725U          25298.42762445  .00041643  00000+0  42630-2 0  9993
2 87725  82.8694 299.7086 0012017 190.9372 169.1589 14.90258185626715
UNKNOWN                 
1 87730U          25295.19664222  .00000117  00000+0  10736-3 0  9998
2 87730  82.9413 272.2399 0030743 145.2410 215.0763 13.74493218578255
UNKNOWN                 
1 87737U          25293.91773262  .00000087  00000+0  13518-3 0  9995
2 87737  99.3796 166.8490 0132912 327.7883  31.5196 13.72328491596619
UNKNOWN                 
1 87764U          25298.44172789  .00005871  00000+0  10209-2 0  9994
2 87764  65.6730 295.2915 0363315 102.2419  50.4487 14.33721400612196
UNKNOWN                 
1 87771U          25294.29671459  .00000128  00000+0  42110-3 0  9996
2 87771 100.7477 129.3158 0119620 121.0498 240.2423 13.19497517528178
UNKNOWN                 
1 87782U          25298.44657752  .00003457  00000+0  11514-1 0  9999
2 87782 102.3230 163.7285 0071125 324.8559  34.7858 13.00073387561716
UNKNOWN                 
1 87843U          25276.61288083  .00004133  00000+0  94101-2 0  9995
2 87843  99.6678  36.6805 0244531 170.0275 190.5821 13.16213341554933
UNKNOWN                 
1 87845U          25298.17034571  .00002455  00000+0  46328-2 0  9996
2 87845  98.8487 265.2103 0577939   5.6006 355.1206 12.88683517558957
UNKNOWN                 
1 87878U          25294.05358435  .00006042  00000+0  19120-2 0  9999
2 87878  99.1563  49.8845 0035787  62.8154 297.6673 14.40156437603719
UNKNOWN                 
1 87884U          25296.54593052  .00000352  00000+0  21693-3 0  9995
2 87884  98.7332  42.1558 0153769 209.1804 150.0709 14.05927936611319
UNKNOWN                 
1 87934U          25297.39866116  .00000121  00000+0  11385-3 0  9990
2 87934  82.9377 336.1830 0031334 170.6674 206.2457 13.73098446597549
